ONEWEB-0501             
1 54119U 22138G   23286.12954314  .00000066  00000+0  13149-3 0  9998
2 54119  87.9211 139.6394 0002231  71.3367 288.8008 13.19723934 48671
ONEWEB-0502             
1 54120U 22138H   23286.11532340  .00000111  00000+0  24564-3 0  9994
2 54120  87.9208 139.6348 0002044  77.2614 282.8747 13.19725517 48695
ONEWEB-0503             
1 54121U 22138J   23285.87681620  .00000051  00000+0  94019-4 0  9999
2 54121  87.9209 139.6902 0001728  94.2157 265.9173 13.19725229 47786
ONEWEB-0504             
1 54122U 22138K   23285.86417912  .00000023  00000+0  25139-4 0  9996
2 54122  87.9210 139.6925 0002116  82.9965 277.1409 13.19727271 48661
ONEWEB-0505             
1 54123U 22138L   23286.08847153  .00000139  00000+0  31594-3 0  9995
2 54123  87.9210 139.6466 0002149  85.3560 274.7818 13.19726590 48677
ONEWEB-0506             
1 54124U 22138M   23286.13902057 -.00000001  00000+0 -34649-4 0  9992
2 54124  87.9210 139.6333 0001983  76.1376 283.9977 13.19726301 48677
ONEWEB-0507             
1 54125U 22138N   23286.15955652  .00000131  00000+0  29499-3 0  9992
2 54125  87.9158 139.6432 0001945  75.1555 284.9793 13.19724920 48723
ONEWEB-0508             
1 54126U 22138P   23286.08058535  .00000149  00000+0  33883-3 0  9990
2 54126  87.9207 139.6518 0002262  71.5420 288.5958 13.19726718 48694
